2026-027A               
1 67746U 26027A   26072.92289621  .00009624  00000+0  47854-3 0  9994
2 67746  97.4902 201.8917 0010486 179.8884 180.2354 15.17797007  4501
2026-027B               
1 67747U 26027B   26072.92092879  .00009478  00000+0  47000-3 0  9992
2 67747  97.4897 201.8922 0010614 182.1972 177.9217 15.17896590  4507
2026-027C               
1 67748U 26027C   26072.91953065  .00006835  00000+0  34013-3 0  9999
2 67748  97.4910 201.8986 0010982 184.2748 175.8394 15.17876307  4503
2026-027D               
1 67749U 26027D   26072.91460164  .00011920  00000+0  58377-3 0  9993
2 67749  97.4902 201.9034 0010538 189.8728 170.2300 15.18268693  4450
2026-027E               
1 67750U 26027E   26072.91496749  .00010156  00000+0  49901-3 0  9996
2 67750  97.4914 201.9073 0009830 190.4187 169.6844 15.18206171  4502
2026-027F               
1 67751U 26027F   26071.79210972  .00003881  00000+0  19460-3 0  9998
2 67751  97.4916 200.8018 0009239 190.5872 169.5169 15.17898571  4337
2026-027G               
1 67752U 26027G   26072.94870047  .00008461  00000+0  49252-3 0  9993
2 67752  97.4912 201.8610 0012195 211.8533 148.1961 15.12217927  4506
JIELONG-3 R/B           
1 67753U 26027H   26072.88301261  .00697891  23533-5  79343-3 0  9991
2 67753  97.5099 204.2799 0196247 229.6614 128.7372 15.81302257  4649
2025-313BF              
1 67755U 25313BF  26072.15953898  .00012596  00000+0  42800-3 0  9998
2 67755  97.3987 148.8127 0007523 320.9316  39.1381 15.30584100  7051
2026-028A               
1 67756U 26028A   26072.31054261 -.00000095  00000+0  00000+0 0  9991
2 67756   0.4620 290.7570 0003537  43.0432  26.1625  1.00209112   298
JAM-E JAM 1             
1 67757U 26028B   26071.79241058  .00000155  00000+0  00000+0 0  9991
2 67757   0.4861 286.1715 0005750 134.5705  68.8815  1.00231393   159
KUIPER-00159            
1 67764U 26030A   26072.66641750  .00044068  00000+0  12414-2 0  9998
2 67764  51.8865 199.9851 0004899  52.1163 308.0266 15.35996984  5701
KUIPER-00160            
1 67765U 26030B   26072.66855665  .00039246  00000+0  11138-2 0  9995
2 67765  51.8807 199.9874 0005562  64.5315 295.6246 15.35816753  5701
KUIPER-00177            
1 67766U 26030C   26072.91668981  .00021496  00000+0  79364-3 0  9991
2 67766  51.8843 198.7289 0002794  15.1568 295.1771 15.27692706  5636
KUIPER-00178            
1 67767U 26030D   26072.91668981 -.00012117  00000+0 -37818-3 0  9992
2 67767  51.8842 198.8767 0007504  56.1319 204.1447 15.31721499  5010
KUIPER-00180            
1 67768U 26030E   26072.91668981  .00010977  00000+0  38187-3 0  9993
2 67768  51.8800 199.4307 0015170  80.7688 257.1687 15.30114426  2467
KUIPER-00197            
1 67769U 26030F   26071.61364854  .00022408  00000+0  62765-3 0  9993
2 67769  51.8826 204.9278 0001778  60.0576 300.0587 15.36533933  5544
